NORAD_CAT_ID,OBJECT_NAME,OBJECT_TYPE,EPOCH,MEAN_MOTION,ECCENTRICITY,INCLINATION,RA_OF_ASC_NODE,ARG_OF_PERICENTER,MEAN_ANOMALY,BSTAR,MEAN_MOTION_DOT,MEAN_MOTION_DDOT,TLE_LINE0,TLE_LINE1,TLE_LINE2,SEMIMAJOR_AXIS,PERIOD,APOGEE,PERIGEE,DECAYED
53969.0,STARLINK-4468,PAYLOAD,2023-05-08 10:33:20,15.08836741,0.0001182,53.2143,196.0259,92.6571,267.4556,-2.7447e-05,-7.25e-06,0.0,0 STARLINK-4468,1 53969U 22125F   23128.43982361 -.00000725  00000-0 -27447-4 0  9990,2 53969  53.2143 196.0259 0001182  92.6571 267.4556 15.08836741 32953,6917.89,95.438,540.573,538.938,0.0
53969.0,STARLINK-4468,PAYLOAD,2023-05-08 12:08:43,15.08839118,0.0001193,53.2148,195.7284,90.4417,269.6712,-4.8267e-07,-2.96e-06,0.0,0 STARLINK-4468,1 53969U 22125F   23128.50606424 -.00000296  00000-0 -48267-6 0  9999,2 53969  53.2148 195.7284 0001193  90.4417 269.6712 15.08839118 32891,6917.883,95.438,540.573,538.923,0.0
53969.0,STARLINK-4468,PAYLOAD,2023-05-09 10:24:08,15.08841007,0.0001231,53.2143,191.5651,81.3623,278.7508,0.0001356,1.871e-05,0.0,0 STARLINK-4468,1 53969U 22125F   23129.43342604  .00001871  00000-0  13560-3 0  9992,2 53969  53.2143 191.5651 0001231  81.3623 278.7508 15.08841007 33030,6917.877,95.437,540.594,538.891,0.0
53969.0,STARLINK-4468,PAYLOAD,2023-05-10 10:14:55,15.08841647,0.0001239,53.2143,187.104,87.1059,273.0075,0.00018054,2.587e-05,0.0,0 STARLINK-4468,1 53969U 22125F   23130.42702860  .00002587  00000-0  18054-3 0  9995,2 53969  53.2143 187.1040 0001239  87.1059 273.0075 15.08841647 33181,6917.875,95.437,540.597,538.883,0.0
53969.0,STARLINK-4468,PAYLOAD,2023-05-11 10:05:42,15.08843693,0.0001227,53.2141,182.6432,88.2153,271.8979,0.0001355,1.869e-05,0.0,0 STARLINK-4468,1 53969U 22125F   23131.42062690  .00001869  00000-0  13550-3 0  9994,2 53969  53.2141 182.6432 0001227  88.2153 271.8979 15.08843693 33405,6917.869,95.437,540.583,538.885,0.0
53969.0,STARLINK-4468,PAYLOAD,2023-05-11 22:48:47,15.08840013,0.0001279,53.214,180.2653,80.3841,279.7296,0.00011216,1.498e-05,0.0,0 STARLINK-4468,1 53969U 22125F   23131.95054890  .00001498  00000-0  11216-3 0  9990,2 53969  53.2140 180.2653 0001279  80.3841 279.7296 15.08840013 33410,6917.88,95.438,540.63,538.861,0.0
53969.0,STARLINK-4468,PAYLOAD,2023-05-12 08:21:06,15.08832439,0.000121,53.2153,178.4814,87.3178,272.7953,3.0592e-05,1.99e-06,0.0,0 STARLINK-4468,1 53969U 22125F   23132.34799510  .00000199  00000-0  30592-4 0  9995,2 53969  53.2153 178.4814 0001210  87.3178 272.7953 15.08832439 33547,6917.904,95.438,540.606,538.931,0.0
53969.0,STARLINK-4468,PAYLOAD,2023-05-13 00:14:57,15.08839734,0.0001186,53.2153,175.5072,96.4525,263.6602,9.3958e-05,1.208e-05,0.0,0 STARLINK-4468,1 53969U 22125F   23133.01038962  .00001208  00000-0  93958-4 0  9994,2 53969  53.2153 175.5072 0001186  96.4525 263.6602 15.08839734 33646,6917.881,95.438,540.567,538.926,0.0
53969.0,STARLINK-4468,PAYLOAD,2023-05-13 08:11:53,15.08841942,0.0001224,53.2149,174.0199,100.6335,259.4795,0.00010972,1.459e-05,0.0,0 STARLINK-4468,1 53969U 22125F   23133.34158853  .00001459  00000-0  10972-3 0  9994,2 53969  53.2149 174.0199 0001224 100.6335 259.4795 15.08841942 33623,6917.874,95.437,540.586,538.893,0.0
53969.0,STARLINK-4468,PAYLOAD,2023-05-13 19:19:35,15.08840634,0.0001171,53.2148,171.9384,109.9913,250.1205,3.1926e-05,2.2e-06,0.0,0 STARLINK-4468,1 53969U 22125F   23133.80527010  .00000220  00000-0  31926-4 0  9998,2 53969  53.2148 171.9384 0001171 109.9913 250.1205 15.08840634 33697,6917.878,95.438,540.554,538.933,0.0
53969.0,STARLINK-4468,PAYLOAD,2023-05-14 09:38:04,15.08830035,0.000131,53.2146,169.2621,102.3459,257.768,7.0464e-05,8.33e-06,0.0,0 STARLINK-4468,1 53969U 22125F   23134.40143989  .00000833  00000-0  70464-4 0  9994,2 53969  53.2146 169.2621 0001310 102.3459 257.7680 15.08830035 33858,6917.911,95.438,540.682,538.87,0.0
53969.0,STARLINK-4468,PAYLOAD,2023-05-14 11:13:28,15.08802201,0.0001319,53.2146,168.9647,101.2207,258.8934,0.00047077,7.205e-05,0.0,0 STARLINK-4468,1 53969U 22125F   23134.46768710  .00007205  00000-0  47077-3 0  9998,2 53969  53.2146 168.9647 0001319 101.2207 258.8934 15.08802201 33791,6917.996,95.44,540.773,538.948,0.0
53969.0,STARLINK-4468,PAYLOAD,2023-05-14 23:56:32,15.08837981,0.000123,53.2145,166.5857,92.0394,268.0739,5.6128e-05,6.05e-06,0.0,0 STARLINK-4468,1 53969U 22125F   23134.99759683  .00000605  00000-0  56128-4 0  9990,2 53969  53.2145 166.5857 0001230  92.0394 268.0739 15.08837981 33949,6917.887,95.438,540.602,538.901,0.0
53969.0,STARLINK-4468,PAYLOAD,2023-05-15 11:04:14,15.08841921,0.0001253,53.2144,164.5043,93.8682,266.2453,8.0672e-05,9.96e-06,0.0,0 STARLINK-4468,1 53969U 22125F   23135.46127400  .00000996  00000-0  80672-4 0  9993,2 53969  53.2144 164.5043 0001253  93.8682 266.2453 15.08841921 33949,6917.875,95.437,540.606,538.873,0.0
53969.0,STARLINK-4468,PAYLOAD,2023-05-16 01:22:42,15.08836537,0.0001309,53.215,161.8275,95.8068,264.3074,0.00012736,1.739e-05,0.0,0 STARLINK-4468,1 53969U 22125F   23136.05743658  .00001739  00000-0  12736-3 0  9999,2 53969  53.2150 161.8275 0001309  95.8068 264.3074 15.08836537 34109,6917.891,95.438,540.662,538.85,0.0
53969.0,STARLINK-4468,PAYLOAD,2023-05-16 09:19:38,15.08840274,0.000128,53.2153,160.3399,101.2458,258.8678,0.00012292,1.669e-05,0.0,0 STARLINK-4468,1 53969U 22125F   23136.38863560  .00001669  00000-0  12292-3 0  9999,2 53969  53.2153 160.3399 0001280 101.2458 258.8678 15.08840274 34084,6917.88,95.438,540.63,538.859,0.0
53969.0,STARLINK-4468,PAYLOAD,2023-05-16 18:51:57,15.08840157,0.0001291,53.2151,158.5561,92.3691,267.7449,8.9215e-05,1.132e-05,0.0,0 STARLINK-4468,1 53969U 22125F   23136.78607670  .00001132  00000-0  89215-4 0  9996,2 53969  53.2151 158.5561 0001291  92.3691 267.7449 15.08840157 34145,6917.88,95.438,540.638,538.852,0.0
53969.0,STARLINK-4468,PAYLOAD,2023-05-17 07:35:01,15.08842879,0.0001286,53.215,156.1769,92.275,267.8389,6.4997e-05,7.47e-06,0.0,0 STARLINK-4468,1 53969U 22125F   23137.31599460  .00000747  00000-0  64997-4 0  9994,2 53969  53.2150 156.1769 0001286  92.2750 267.8389 15.08842879 34290,6917.872,95.437,540.626,538.847,0.0
53969.0,STARLINK-4468,PAYLOAD,2023-05-17 18:42:43,15.08842641,0.0001306,53.2152,154.0956,89.7976,270.3166,4.3662e-05,4.07e-06,0.0,0 STARLINK-4468,1 53969U 22125F   23137.77967451  .00000407  00000-0  43662-4 0  9992,2 53969  53.2152 154.0956 0001306  89.7976 270.3166 15.08842641 34290,6917.872,95.437,540.641,538.834,0.0
53969.0,STARLINK-4468,PAYLOAD,2023-05-18 07:25:48,15.08841669,0.0001241,53.2153,151.7165,91.4454,268.6681,4.248e-05,3.88e-06,0.0,0 STARLINK-4468,1 53969U 22125F   23138.30959382  .00000388  00000-0  42480-4 0  9991,2 53969  53.2153 151.7165 0001241  91.4454 268.6681 15.08841669 34376,6917.875,95.437,540.599,538.882,0.0
53969.0,STARLINK-4468,PAYLOAD,2023-05-19 07:16:36,15.08837281,0.0001262,53.2153,147.2568,86.5855,273.5282,6.9715e-06,-1.77e-06,0.0,0 STARLINK-4468,1 53969U 22125F   23139.30319840 -.00000177  00000-0  69715-5 0  9999,2 53969  53.2153 147.2568 0001262  86.5855 273.5282 15.08837281 34597,6917.889,95.438,540.627,538.881,0.0
53969.0,STARLINK-4468,PAYLOAD,2023-05-19 10:27:22,15.08836943,0.0001264,53.2153,146.6623,86.414,273.6996,1.6832e-05,-2e-07,0.0,0 STARLINK-4468,1 53969U 22125F   23139.43567852 -.00000020  00000-0  16832-4 0  9999,2 53969  53.2153 146.6623 0001264  86.4140 273.6996 15.08836943 34542,6917.89,95.438,540.629,538.88,0.0
53969.0,STARLINK-4468,PAYLOAD,2023-05-20 16:39:41,15.08841724,0.0001268,53.2154,141.012,85.2083,274.9054,8.1628e-05,1.012e-05,0.0,0 STARLINK-4468,1 53969U 22125F   23140.69423471  .00001012  00000-0  81628-4 0  9993,2 53969  53.2154 141.0120 0001268  85.2083 274.9054 15.08841724 34802,6917.875,95.437,540.617,538.863,0.0
53969.0,STARLINK-4468,PAYLOAD,2023-05-21 06:58:09,15.08844056,0.0001269,53.2156,138.3356,85.3696,274.7441,0.00011315,1.514e-05,0.0,0 STARLINK-4468,1 53969U 22125F   23141.29039239  .00001514  00000-0  11315-3 0  9997,2 53969  53.2156 138.3356 0001269  85.3696 274.7441 15.08844056 34827,6917.868,95.437,540.611,538.855,0.0
53969.0,STARLINK-4468,PAYLOAD,2023-05-21 16:30:29,15.08836902,0.0001233,53.2151,136.5517,84.4785,275.6348,3.5333e-05,2.74e-06,0.0,0 STARLINK-4468,1 53969U 22125F   23141.68783910  .00000274  00000-0  35333-4 0  9991,2 53969  53.2151 136.5517 0001233  84.4785 275.6348 15.08836902 34952,6917.89,95.438,540.608,538.902,0.0
53969.0,STARLINK-4468,PAYLOAD,2023-05-21 22:52:01,15.08837006,0.0001359,53.2163,135.3638,88.2255,271.8893,2.9441e-05,1.81e-06,0.0,0 STARLINK-4468,1 53969U 22125F   23141.95280007  .00000181  00000-0  29441-4 0  9990,2 53969  53.2163 135.3638 0001359  88.2255 271.8893 15.08837006 34925,6917.89,95.438,540.695,538.814,0.0
53969.0,STARLINK-4468,PAYLOAD,2023-05-22 03:38:11,15.08832411,0.0001294,53.2155,134.4702,91.1234,268.9906,-1.7001e-05,-5.58e-06,0.0,0 STARLINK-4468,1 53969U 22125F   23142.15152512 -.00000558  00000-0 -17001-4 0  9991,2 53969  53.2155 134.4702 0001294  91.1234 268.9906 15.08832411 35025,6917.904,95.438,540.664,538.873,0.0
53969.0,STARLINK-4468,PAYLOAD,2023-05-22 16:21:16,15.08837112,0.0001276,53.2153,132.0915,93.8188,266.295,2.0513e-05,3.9e-07,0.0,0 STARLINK-4468,1 53969U 22125F   23142.68144246  .00000039  00000-0  20513-4 0  9998,2 53969  53.2153 132.0915 0001276  93.8188 266.2950 15.08837112 35034,6917.889,95.438,540.637,538.871,0.0
53969.0,STARLINK-4468,PAYLOAD,2023-05-23 16:12:03,15.08836707,0.0001331,53.2154,127.6299,87.8481,272.2663,4.3908e-05,4.11e-06,0.0,0 STARLINK-4468,1 53969U 22125F   23143.67504277  .00000411  00000-0  43908-4 0  9999,2 53969  53.2154 127.6299 0001331  87.8481 272.2663 15.08836707 35184,6917.89,95.438,540.676,538.835,0.0
53969.0,STARLINK-4468,PAYLOAD,2023-05-24 08:05:55,15.08835979,0.0001259,53.2151,124.6547,90.4523,269.6614,9.0233e-05,1.148e-05,0.0,0 STARLINK-4468,1 53969U 22125F   23144.33744453  .00001148  00000-0  90233-4 0  9996,2 53969  53.2151 124.6547 0001259  90.4523 269.6614 15.08835979 35355,6917.893,95.438,540.629,538.887,0.0
